ONEWEB-0080             
1 45426U 20020C   24241.51770923  .00000519  00000+0  14278-2 0  9990
2 45426  87.8993 152.0237 0001665  84.7777 275.3541 13.11415466216519
ONEWEB-0090             
1 45427U 20020D   24241.15318681 -.00000060  00000+0 -20507-3 0  9996
2 45427  87.8998 152.0821 0001902  75.7032 284.4307 13.11416164216430
ONEWEB-0061             
1 45428U 20020E   24241.18524782 -.00000052  00000+0 -18206-3 0  9995
2 45428  87.8995 152.0708 0001836  74.3484 285.7846 13.11419293216386
ONEWEB-0081             
1 45429U 20020F   24241.16672598 -.00000444  00000+0 -12895-2 0  9995
2 45429  87.8997 152.0926 0001736  70.2537 289.8778 13.11415211216491
ONEWEB-0069             
1 45430U 20020G   24240.46988462 -.00000292  00000+0 -85850-3 0  9992
2 45430  87.8994 152.2197 0001903  78.1443 281.9898 13.11414546216330
ONEWEB-0031             
1 45431U 20020H   24240.59367279  .00000567  00000+0  15637-2 0  9992
2 45431  87.9003 152.2076 0001962  75.1107 285.0238 13.11416507216330
ONEWEB-0027             
1 45432U 20020J   24241.47100073  .00000085  00000+0  18459-3 0  9999
2 45432  87.9167 136.8530 0002160  79.6715 280.4660 13.17648321219743
ONEWEB-0064             
1 45433U 20020K   24241.50751759 -.00003859  00000+0 -10925-1 0  9999
2 45433  87.8999 152.0324 0002160  82.9000 277.2373 13.11433309216497
